{"type": "FeatureCollection", "features": [ {"type": "Feature", "properties": {"norad_id": 39778, "name": "IRIDIUM 33 DEB", "group": "iridium-33-debris", "lat": -22.705074781518963, "lon": -133.13716796513975, "alt_km": 722.5438365154268, "timestamp": "2025-12-07T20:38:14.449593+00:00", "meta": {"OBJECT_NAME": "IRIDIUM 33 DEB", "OBJECT_ID": "1997-051AAK", "EPOCH": "2025-12-06T10:40:47.981856", "MEAN_MOTION": 14.54195106, "ECCENTRICITY": 0.000862, "INCLINATION": 86.3781, "RA_OF_ASC_NODE": 45.9581, "ARG_OF_PERICENTER": 60.4132, "MEAN_ANOMALY": 299.7933, "EPHEMERIS_TYPE": 0, "CLASSIFICATION_TYPE": "U", "NORAD_CAT_ID": 39778, "ELEMENT_SET_NO": 999, "REV_AT_EPOCH": 60601, "BSTAR": 0.0017130397, "MEAN_MOTION_DOT": 7.274e-05, "MEAN_MOTION_DDOT": 0}, "tle": {"line1": "1 39778U 97051AAK 25340.44499979  .00007274  00000+0  17130-2 0  9998", "line2": "2 39778  86.3781  45.9581 0008620  60.4132 299.7933 14.54195106606014"}}, "geometry": {"type": "Point", "coordinates": [-133.13716796513975, -22.705074781518963]}}, {"type": "Feature", "properties": {"norad_id": 39781, "name": "IRIDIUM 33 DEB", "group": "iridium-33-debris", "lat": -7.789177466913294, "lon": 80.48688676890484, "alt_km": 850.4290162349635, "timestamp": "2025-12-07T20:38:14.449604+00:00", "meta": {"OBJECT_NAME": "IRIDIUM 33 DEB", "OBJECT_ID": "1997-051AAN", "EPOCH": "2025-12-07T01:13:23.280096", "MEAN_MOTION": 14.20376267, "ECCENTRICITY": 0.01796039, "INCLINATION": 86.3686, "RA_OF_ASC_NODE": 260.3225, "ARG_OF_PERICENTER": 291.285, "MEAN_ANOMALY": 84.633, "EPHEMERIS_TYPE": 0, "CLASSIFICATION_TYPE": "U", "NORAD_CAT_ID": 39781, "ELEMENT_SET_NO": 999, "REV_AT_EPOCH": 8026, "BSTAR": 0.0085418248, "MEAN_MOTION_DOT": 0.00021578, "MEAN_MOTION_DDOT": 0}, "tle": {"line1": "1 39781U 97051AAN 25341.05096389  .00021578  00000+0  85418-2 0  9995", "line2": "2 39781  86.3686 260.3225 0179603 291.2850  84.6330 14.20376267 80268"}}, "geometry": {"type": "Point", "coordinates": [80.48688676890484, -7.789177466913294]}}, {"type": "Feature", "properties": {"norad_id": 39783, "name": "IRIDIUM 33 DEB", "group": "iridium-33-debris", "lat": -19.27353809754076, "lon": -103.53256578575045, "alt_km": 483.7575820876209, "timestamp": "2025-12-07T20:38:14.449614+00:00", "meta": {"OBJECT_NAME": "IRIDIUM 33 DEB", "OBJECT_ID": "1997-051AAQ", "EPOCH": "2025-11-16T15:05:40.850592", "MEAN_MOTION": 15.19327111, "ECCENTRICITY": 0.00057535, "INCLINATION": 86.1306, "RA_OF_ASC_NODE": 268.8004, "ARG_OF_PERICENTER": 179.9151, "MEAN_ANOMALY": 1.8316, "EPHEMERIS_TYPE": 0, "CLASSIFICATION_TYPE": "U", "NORAD_CAT_ID": 39783, "ELEMENT_SET_NO": 999, "REV_AT_EPOCH": 60401, "BSTAR": 0.010398125, "MEAN_MOTION_DOT": 0.00226179, "MEAN_MOTION_DDOT": 0}, "tle": {"line1": "1 39783U 97051AAQ 25320.62894503  .00226179  00000+0  10398-1 0  9999", "line2": "2 39783  86.1306 268.8004 0005753 179.9151   1.8316 15.19327111604018"}}, "geometry": {"type": "Point", "coordinates": [-103.53256578575045, -19.27353809754076]}}, {"type": "Feature", "properties": {"norad_id": 40996, "name": "IRIDIUM 33 DEB", "group": "iridium-33-debris", "lat": 66.80919913089825, "lon": 175.12745294498603, "alt_km": 567.5890924904043, "timestamp": "2025-12-07T20:38:14.449624+00:00", "meta": {"OBJECT_NAME": "IRIDIUM 33 DEB", "OBJECT_ID": "1997-051ABJ", "EPOCH": "2025-12-02T08:31:11.979264", "MEAN_MOTION": 14.95250831, "ECCENTRICITY": 0.00120962, "INCLINATION": 86.3524, "RA_OF_ASC_NODE": 6.2584, "ARG_OF_PERICENTER": 92.2467, "MEAN_ANOMALY": 284.2756, "EPHEMERIS_TYPE": 0, "CLASSIFICATION_TYPE": "U", "NORAD_CAT_ID": 40996, "ELEMENT_SET_NO": 999, "REV_AT_EPOCH": 62333, "BSTAR": 0.0031243939, "MEAN_MOTION_DOT": 0.0003457, "MEAN_MOTION_DDOT": 0}, "tle": {"line1": "1 40996U 97051ABJ 25336.35499976  .00034570  00000+0  31244-2 0  9995", "line2": "2 40996  86.3524   6.2584 0012096  92.2467 284.2756 14.95250831623330"}}, "geometry": {"type": "Point", "coordinates": [175.12745294498603, 66.80919913089825]}}, {"type": "Feature", "properties": {"norad_id": 40998, "name": "IRIDIUM 33 DEB", "group": "iridium-33-debris", "lat": 22.429690777334443, "lon": 57.236849091557154, "alt_km": 739.4032849325604, "timestamp": "2025-12-07T20:38:14.449634+00:00", "meta": {"OBJECT_NAME": "IRIDIUM 33 DEB", "OBJECT_ID": "1997-051ABL", "EPOCH": "2025-12-03T12:06:12.154176", "MEAN_MOTION": 14.45043538, "ECCENTRICITY": 0.00095708, "INCLINATION": 86.3836, "RA_OF_ASC_NODE": 57.6004, "ARG_OF_PERICENTER": 108.6038, "MEAN_ANOMALY": 309.9308, "EPHEMERIS_TYPE": 0, "CLASSIFICATION_TYPE": "U", "NORAD_CAT_ID": 40998, "ELEMENT_SET_NO": 999, "REV_AT_EPOCH": 6548, "BSTAR": 0.00081638604, "MEAN_MOTION_DOT": 2.87e-05, "MEAN_MOTION_DDOT": 0}, "tle": {"line1": "1 40998U 97051ABL 25337.50430734  .00002870  00000+0  81639-3 0  9994", "line2": "2 40998  86.3836  57.6004 0009570 108.6038 309.9308 14.45043538 65487"}}, "geometry": {"type": "Point", "coordinates": [57.236849091557154, 22.429690777334443]}}, {"type": "Feature", "properties": {"norad_id": 46435, "name": "IRIDIUM 33 DEB", "group": "iridium-33-debris", "lat": 62.29270458197704, "lon": 8.93914784083733, "alt_km": 930.1173464554658, "timestamp": "2025-12-07T20:38:14.449643+00:00", "meta": {"OBJECT_NAME": "IRIDIUM 33 DEB", "OBJECT_ID": "1997-051ABN", "EPOCH": "2025-12-05T21:11:31.918848", "MEAN_MOTION": 14.31677578, "ECCENTRICITY": 0.02114169, "INCLINATION": 86.2838, "RA_OF_ASC_NODE": 196.8975, "ARG_OF_PERICENTER": 298.5374, "MEAN_ANOMALY": 75.9758, "EPHEMERIS_TYPE": 0, "CLASSIFICATION_TYPE": "U", "NORAD_CAT_ID": 46435, "ELEMENT_SET_NO": 999, "REV_AT_EPOCH": 7818, "BSTAR": 0.013325528, "MEAN_MOTION_DOT": 0.00045688, "MEAN_MOTION_DDOT": 0}, "tle": {"line1": "1 46435U 97051ABN 25339.88300832  .00045688  00000+0  13326-1 0  9994", "line2": "2 46435  86.2838 196.8975 0211416 298.5374  75.9758 14.31677578 78181"}}, "geometry": {"type": "Point", "coordinates": [8.93914784083733, 62.29270458197704]}}, {"type": "Feature", "properties": {"norad_id": 46734, "name": "IRIDIUM 33 DEB", "group": "iridium-33-debris", "lat": 41.51570791580666, "lon": -178.30808412596568, "alt_km": 772.4935804734432, "timestamp": "2025-12-07T20:38:14.449653+00:00", "meta": {"OBJECT_NAME": "IRIDIUM 33 DEB", "OBJECT_ID": "1997-051ABR", "EPOCH": "2025-12-03T20:12:35.443296", "MEAN_MOTION": 14.41795233, "ECCENTRICITY": 0.00394426, "INCLINATION": 86.2642, "RA_OF_ASC_NODE": 6.7702, "ARG_OF_PERICENTER": 5.4679, "MEAN_ANOMALY": 171.2392, "EPHEMERIS_TYPE": 0, "CLASSIFICATION_TYPE": "U", "NORAD_CAT_ID": 46734, "ELEMENT_SET_NO": 999, "REV_AT_EPOCH": 62882, "BSTAR": 0.0014594249, "MEAN_MOTION_DOT": 4.83e-05, "MEAN_MOTION_DDOT": 0}, "tle": {"line1": "1 46734U 97051ABR 25337.84207689  .00004830  00000+0  14594-2 0  9999", "line2": "2 46734  86.2642   6.7702 0039442   5.4679 171.2392 14.41795233628829"}}, "geometry": {"type": "Point", "coordinates": [-178.30808412596568, 41.51570791580666]}}, {"type": "Feature", "properties": {"norad_id": 46965, "name": "IRIDIUM 33 DEB", "group": "iridium-33-debris", "lat": -47.33611239947787, "lon": -21.12623653932077, "alt_km": 688.7772508900043, "timestamp": "2025-12-07T20:38:14.449664+00:00", "meta": {"OBJECT_NAME": "IRIDIUM 33 DEB", "OBJECT_ID": "1997-051ABX", "EPOCH": "2025-12-06T23:36:16.318080", "MEAN_MOTION": 14.60228629, "ECCENTRICITY": 0.00188578, "INCLINATION": 86.335, "RA_OF_ASC_NODE": 343.2503, "ARG_OF_PERICENTER": 353.5175, "MEAN_ANOMALY": 35.294, "EPHEMERIS_TYPE": 0, "CLASSIFICATION_TYPE": "U", "NORAD_CAT_ID": 46965, "ELEMENT_SET_NO": 999, "REV_AT_EPOCH": 62184, "BSTAR": 0.0013461013, "MEAN_MOTION_DOT": 6.528e-05, "MEAN_MOTION_DDOT": 0}, "tle": {"line1": "1 46965U 97051ABX 25340.98352220  .00006528  00000+0  13461-2 0  9994", "line2": "2 46965  86.3350 343.2503 0018857 353.5175  35.2940 14.60228629621849"}}, "geometry": {"type": "Point", "coordinates": [-21.12623653932077, -47.33611239947787]}}, {"type": "Feature", "properties": {"norad_id": 46971, "name": "IRIDIUM 33 DEB", "group": "iridium-33-debris", "lat": 84.61863692894372, "lon": 112.59314488187246, "alt_km": 569.039516547843, "timestamp": "2025-12-07T20:38:14.449674+00:00", "meta": {"OBJECT_NAME": "IRIDIUM 33 DEB", "OBJECT_ID": "1997-051ACD", "EPOCH": "2025-11-30T18:57:44.502624", "MEAN_MOTION": 14.96904917, "ECCENTRICITY": 0.00065248, "INCLINATION": 86.3392, "RA_OF_ASC_NODE": 338.7285, "ARG_OF_PERICENTER": 8.9727, "MEAN_ANOMALY": 165.6369, "EPHEMERIS_TYPE": 0, "CLASSIFICATION_TYPE": "U", "NORAD_CAT_ID": 46971, "ELEMENT_SET_NO": 999, "REV_AT_EPOCH": 64051, "BSTAR": 0.0032009998, "MEAN_MOTION_DOT": 0.00036919, "MEAN_MOTION_DDOT": 0}, "tle": {"line1": "1 46971U 97051ACD 25334.79009841  .00036919  00000+0  32010-2 0  9999", "line2": "2 46971  86.3392 338.7285 0006524   8.9727 165.6369 14.96904917640518"}}, "geometry": {"type": "Point", "coordinates": [112.59314488187246, 84.61863692894372]}}, {"type": "Feature", "properties": {"norad_id": 46974, "name": "IRIDIUM 33 DEB", "group": "iridium-33-debris", "lat": -50.211241715854065, "lon": 102.94432751275517, "alt_km": 771.4225669836851, "timestamp": "2025-12-07T20:38:14.449685+00:00", "meta": {"OBJECT_NAME": "IRIDIUM 33 DEB", "OBJECT_ID": "1997-051ACG", "EPOCH": "2025-12-03T15:25:18.733152", "MEAN_MOTION": 14.43893104, "ECCENTRICITY": 0.00960014, "INCLINATION": 86.2979, "RA_OF_ASC_NODE": 109.2433, "ARG_OF_PERICENTER": 216.6177, "MEAN_ANOMALY": 142.8439, "EPHEMERIS_TYPE": 0, "CLASSIFICATION_TYPE": "U", "NORAD_CAT_ID": 46974, "ELEMENT_SET_NO": 999, "REV_AT_EPOCH": 57377, "BSTAR": 0.0066247967, "MEAN_MOTION_DOT": 0.0002397, "MEAN_MOTION_DDOT": 0}, "tle": {"line1": "1 46974U 97051ACG 25337.64257793  .00023970  00000+0  66248-2 0  9993", "line2": "2 46974  86.2979 109.2433 0096001 216.6177 142.8439 14.43893104573778"}}, "geometry": {"type": "Point", "coordinates": [102.94432751275517, -50.211241715854065]}}]}